#aV2024 11  9  0  0  0.00000000     288 DD+AD WGS84 FIT  NGA
## 2339 518400.00000000   300.00000000 60623 0.0000000000000
+   31     2  3  4  5  6  7  8  9 10 11 12 13 14 15 16 17 18
+         19 20 21 22 23 24 25 26 27 28 29 30 31 32  0  0  0
+          0  0  0  0  0  0  0  0  0  0  0  0  0  0  0  0  0
+          0  0  0  0  0  0  0  0  0  0  0  0  0  0  0  0  0
+          0  0  0  0  0  0  0  0  0  0  0  0  0  0  0  0  0
++         2  2  2  2  2  2  2  2  2  2  2  2  2  2  2  2  2
++         2  2  2  2  2  2  2  2  2  2  2  2  2  2  0  0  0
++         0  0  0  0  0  0  0  0  0  0  0  0  0  0  0  0  0
++         0  0  0  0  0  0  0  0  0  0  0  0  0  0  0  0  0
++         0  0  0  0  0  0  0  0  0  0  0  0  0  0  0  0  0
%c cc cc ccc ccc cccc cccc cccc cccc ccccc ccccc ccccc ccccc
%c cc cc ccc ccc cccc cccc cccc cccc ccccc ccccc ccccc ccccc
%f  0.0000000  0.000000000  0.00000000000  0.000000000000000
%f  0.0000000  0.000000000  0.00000000000  0.000000000000000
%i    0    0    0    0      0      0      0      0         0
%i    0    0    0    0      0      0      0      0         0
/*      NGA, ST. LOUIS,MO.                                  
/*   EPHEMERIS COMPUTED FROM 2 DAYS OF DATA                 
/*   EPOCHA v9 SMOOTHER                                     
/*   G2296 IERS2010 SATIGS SATAPC                           
*  2024 11  9 12  0  0.00000000
P  2 -14364.373901  22012.239261   2523.516698   -318.482280                    
V  2  -1219.781213  -3739.861713  31907.713828      0.085162                    
P  3 -11489.649906  12653.238813 -20464.280840    594.999956                    
V  3 -25435.021232  -2799.516275  12756.005097      0.105124                    
P  4  -3824.307369  20125.248897 -16808.753853    476.480406                    
V  4 -10284.724136 -18871.623277 -20384.378470      0.065296                    
P  5  24266.867424  -5604.606859   9141.232527   -192.453001                    
V  5  11766.682351   2470.520027 -29089.524099     -0.011818                    
P  6  12742.890277   7145.116570 -22114.408975   -101.286449                    
V  6 -16175.781334  23058.087872  -1756.784150     -0.289193                    
P  7  -2649.273071  22251.965375  14427.343082    -21.246435                    
V  7 -11992.870421  13167.196556 -23829.501115      0.024099                    
P  8 -11955.976691   9998.879002  21348.590803    408.764908                    
V  8 -13417.797405 -23980.110261   4134.790144      0.104720                    
P  9   5011.096778  24279.036344  -9531.422791    435.872991                    
V  9  -7813.029870  -9466.054328 -28563.282394      0.169420                    
P 10 -20583.595217 -10563.270854  13570.585642   -189.246361                    
V 10  16734.916734    -10.496858  25468.654737     -0.142558                    
P 11  19420.723994  -6510.377168 -16835.015865   -749.251599                    
V 11 -11481.963046  18215.252828 -20305.668410     -0.018578                    
P 12  16158.062607 -10684.780552 -18434.864315   -550.904380                    
V 12  22410.745777   4672.587984  17244.943101     -0.025485                    
P 13  15221.409304   -640.623409  21547.165480    685.282695                    
V 13   8168.711607  26629.675086  -4695.715912      0.016329                    
P 14  17201.338839  13019.503886  15689.026540    536.026947                    
V 14 -19902.565218    239.010484  21455.258940      0.081747                    
P 15  10244.274680 -12051.036422  20801.173585    225.704199                    
V 15  16409.193788  22377.503214   4914.213829      0.045174                    
P 16 -26257.642172   -701.324877   4971.537878   -132.910499                    
V 16  -6204.210945  -3439.147452 -30640.213624      0.098199                    
P 17  13334.825765  22015.804459  -5706.664740    565.261892                    
V 17    406.551274   8290.597175  30882.061279     -0.142551                    
P 18   2033.245427 -21275.949863  15649.266785   -660.088167                    
V 18  12960.524970 -15184.106356 -22587.853106     -0.005934                    
P 19  16404.276265  15128.453791 -14870.425813    560.690750                    
V 19   4723.911375  17908.878477  23239.982616      0.044959                    
P 20  26326.402118   -966.259510  -2607.522296    368.896276                    
V 20  -3074.824337   3421.146492 -31519.832132     -0.003485                    
P 21 -16735.720087  18226.121667   8387.336045     97.876622                    
V 21   2066.234796 -10772.997353  29943.801440     -0.008960                    
P 22  22394.502238  10505.506705   9640.209413    -78.043126                    
V 22 -12056.676733    749.300160  28664.701302     -0.029780                    
P 23  -7472.006516 -14443.954924  21082.585292    359.576788                    
V 23  26572.678680    689.811298   9684.393775      0.079825                    
P 24  14534.325503 -21637.461644   3334.813628   -481.200016                    
V 24   1221.350387   6186.149928  31021.816318      0.019930                    
P 25   1360.178288 -15563.894232 -21825.677309    499.122475                    
V 25  26884.654445   1614.835016    795.349789     -0.002455                    
P 26 -25417.055405  -4884.758580  -6977.798034     32.153740                    
V 26   8543.471737  -3320.516009 -29139.687797     -0.130400                    
P 27 -16879.160701  -2177.527189  20200.449525    -34.738057                    
V 27 -10869.506247 -23867.174237 -11065.977984      0.000355                    
P 28 -12061.190612  -9343.481915 -21756.706356   -473.454304                    
V 28  14909.994763 -23211.474106   1707.076967     -0.119906                    
P 29  -2032.913178 -24370.460892 -10251.270574   -565.098000                    
V 29   6950.389474  11218.654790 -28280.825500      0.028609                    
P 30   7047.039940  16000.422935  20074.087558   -285.501385                    
V 30 -15333.642322  20205.606700 -11070.255799      0.077343                    
P 31 -18320.742213   1890.592636 -19506.398025   -222.061415                    
V 31  13106.598265 -20323.686675 -14092.823421      0.006276                    
P 32 -15994.589838 -19691.191227  -7997.592905   -576.107629                    
V 32  -2435.943358 -10396.751926  29455.402969      0.051201                    
EOF
